{"type": "FeatureCollection", "features": [ {"type": "Feature", "properties": {"norad_id": 30756, "name": "FENGYUN 1C DEB", "group": "fengyun-1c-debris", "lat": 51.70413749697095, "lon": -122.38764651170762, "alt_km": 869.5580456312728, "timestamp": "2025-12-04T17:48:40.444382+00:00", "meta": {"OBJECT_NAME": "FENGYUN 1C DEB", "OBJECT_ID": "1999-025ATS", "EPOCH": "2025-12-01T03:07:39.959904", "MEAN_MOTION": 14.18173809, "ECCENTRICITY": 0.00708233, "INCLINATION": 98.9924, "RA_OF_ASC_NODE": 42.3861, "ARG_OF_PERICENTER": 350.1374, "MEAN_ANOMALY": 67.0548, "EPHEMERIS_TYPE": 0, "CLASSIFICATION_TYPE": "U", "NORAD_CAT_ID": 30756, "ELEMENT_SET_NO": 999, "REV_AT_EPOCH": 96240, "BSTAR": 0.0014052244, "MEAN_MOTION_DOT": 2.914e-05, "MEAN_MOTION_DDOT": 0}, "tle": {"line1": "1 30756U 99025ATS 25335.13032361  .00002914  00000+0  14052-2 0  9992", "line2": "2 30756  98.9924  42.3861 0070823 350.1374  67.0548 14.18173809962404"}}, "geometry": {"type": "Point", "coordinates": [-122.38764651170762, 51.70413749697095]}}, {"type": "Feature", "properties": {"norad_id": 30758, "name": "FENGYUN 1C DEB", "group": "fengyun-1c-debris", "lat": -13.246145584538798, "lon": -84.8188318134568, "alt_km": 866.9038595463344, "timestamp": "2025-12-04T17:48:40.444392+00:00", "meta": {"OBJECT_NAME": "FENGYUN 1C DEB", "OBJECT_ID": "1999-025ATU", "EPOCH": "2025-12-04T06:52:16.370112", "MEAN_MOTION": 14.17055559, "ECCENTRICITY": 0.00386871, "INCLINATION": 99.0187, "RA_OF_ASC_NODE": 96.8616, "ARG_OF_PERICENTER": 28.0891, "MEAN_ANOMALY": 1.0045, "EPHEMERIS_TYPE": 0, "CLASSIFICATION_TYPE": "U", "NORAD_CAT_ID": 30758, "ELEMENT_SET_NO": 999, "REV_AT_EPOCH": 96371, "BSTAR": 0.002207386, "MEAN_MOTION_DOT": 4.43e-05, "MEAN_MOTION_DDOT": 0}, "tle": {"line1": "1 30758U 99025ATU 25338.28630058  .00004430  00000+0  22074-2 0  9998", "line2": "2 30758  99.0187  96.8616 0038687  28.0891   1.0045 14.17055559963713"}}, "geometry": {"type": "Point", "coordinates": [-84.8188318134568, -13.246145584538798]}}, {"type": "Feature", "properties": {"norad_id": 30759, "name": "FENGYUN 1C DEB", "group": "fengyun-1c-debris", "lat": -76.07981956368776, "lon": -135.49538138970897, "alt_km": 717.1043854845284, "timestamp": "2025-12-04T17:48:40.444402+00:00", "meta": {"OBJECT_NAME": "FENGYUN 1C DEB", "OBJECT_ID": "1999-025ATV", "EPOCH": "2025-12-04T07:00:25.013952", "MEAN_MOTION": 14.54217631, "ECCENTRICITY": 0.00096105, "INCLINATION": 99.2571, "RA_OF_ASC_NODE": 85.1578, "ARG_OF_PERICENTER": 187.8962, "MEAN_ANOMALY": 236.0972, "EPHEMERIS_TYPE": 0, "CLASSIFICATION_TYPE": "U", "NORAD_CAT_ID": 30759, "ELEMENT_SET_NO": 999, "REV_AT_EPOCH": 97532, "BSTAR": 0.0069968015, "MEAN_MOTION_DOT": 0.00029727, "MEAN_MOTION_DDOT": 0}, "tle": {"line1": "1 30759U 99025ATV 25338.29195618  .00029727  00000+0  69968-2 0  9997", "line2": "2 30759  99.2571  85.1578 0009610 187.8962 236.0972 14.54217631975329"}}, "geometry": {"type": "Point", "coordinates": [-135.49538138970897, -76.07981956368776]}}, {"type": "Feature", "properties": {"norad_id": 30760, "name": "FENGYUN 1C DEB", "group": "fengyun-1c-debris", "lat": -80.96783829907663, "lon": 53.32343323818428, "alt_km": 885.8114774249243, "timestamp": "2025-12-04T17:48:40.444412+00:00", "meta": {"OBJECT_NAME": "FENGYUN 1C DEB", "OBJECT_ID": "1999-025ATW", "EPOCH": "2025-12-04T06:15:53.652960", "MEAN_MOTION": 14.05171061, "ECCENTRICITY": 0.0053199, "INCLINATION": 98.8221, "RA_OF_ASC_NODE": 335.1731, "ARG_OF_PERICENTER": 7.3534, "MEAN_ANOMALY": 352.8402, "EPHEMERIS_TYPE": 0, "CLASSIFICATION_TYPE": "U", "NORAD_CAT_ID": 30760, "ELEMENT_SET_NO": 999, "REV_AT_EPOCH": 96103, "BSTAR": 0.00038479731, "MEAN_MOTION_DOT": 5.86e-06, "MEAN_MOTION_DDOT": 0}, "tle": {"line1": "1 30760U 99025ATW 25338.26103765  .00000586  00000+0  38480-3 0  9996", "line2": "2 30760  98.8221 335.1731 0053199   7.3534 352.8402 14.05171061961039"}}, "geometry": {"type": "Point", "coordinates": [53.32343323818428, -80.96783829907663]}}, {"type": "Feature", "properties": {"norad_id": 30761, "name": "FENGYUN 1C DEB", "group": "fengyun-1c-debris", "lat": -41.677245303266766, "lon": 76.43652069470288, "alt_km": 804.7959844431234, "timestamp": "2025-12-04T17:48:40.444422+00:00", "meta": {"OBJECT_NAME": "FENGYUN 1C DEB", "OBJECT_ID": "1999-025ATX", "EPOCH": "2025-12-03T05:38:54.367008", "MEAN_MOTION": 14.35668628, "ECCENTRICITY": 0.008522, "INCLINATION": 98.9648, "RA_OF_ASC_NODE": 262.9496, "ARG_OF_PERICENTER": 341.7695, "MEAN_ANOMALY": 18.0439, "EPHEMERIS_TYPE": 0, "CLASSIFICATION_TYPE": "U", "NORAD_CAT_ID": 30761, "ELEMENT_SET_NO": 999, "REV_AT_EPOCH": 97605, "BSTAR": 0.0016947, "MEAN_MOTION_DOT": 5.052e-05, "MEAN_MOTION_DDOT": 0}, "tle": {"line1": "1 30761U 99025ATX 25337.23535147  .00005052  00000+0  16947-2 0  9992", "line2": "2 30761  98.9648 262.9496 0085220 341.7695  18.0439 14.35668628976054"}}, "geometry": {"type": "Point", "coordinates": [76.43652069470288, -41.677245303266766]}}, {"type": "Feature", "properties": {"norad_id": 30762, "name": "FENGYUN 1C DEB", "group": "fengyun-1c-debris", "lat": 40.76363805965768, "lon": -37.95175791208149, "alt_km": 879.7921316943512, "timestamp": "2025-12-04T17:48:40.444432+00:00", "meta": {"OBJECT_NAME": "FENGYUN 1C DEB", "OBJECT_ID": "1999-025ATY", "EPOCH": "2025-12-04T05:40:57.310752", "MEAN_MOTION": 13.98068438, "ECCENTRICITY": 0.01980952, "INCLINATION": 98.8735, "RA_OF_ASC_NODE": 329.299, "ARG_OF_PERICENTER": 318.6469, "MEAN_ANOMALY": 58.4401, "EPHEMERIS_TYPE": 0, "CLASSIFICATION_TYPE": "U", "NORAD_CAT_ID": 30762, "ELEMENT_SET_NO": 999, "REV_AT_EPOCH": 95519, "BSTAR": 0.00093731872, "MEAN_MOTION_DOT": 1.531e-05, "MEAN_MOTION_DDOT": 0}, "tle": {"line1": "1 30762U 99025ATY 25338.23677443  .00001531  00000+0  93732-3 0  9996", "line2": "2 30762  98.8735 329.2990 0198095 318.6469  58.4401 13.98068438955194"}}, "geometry": {"type": "Point", "coordinates": [-37.95175791208149, 40.76363805965768]}}, {"type": "Feature", "properties": {"norad_id": 30763, "name": "FENGYUN 1C DEB", "group": "fengyun-1c-debris", "lat": -81.0533786663345, "lon": 133.59966341680956, "alt_km": 683.910244952177, "timestamp": "2025-12-04T17:48:40.444442+00:00", "meta": {"OBJECT_NAME": "FENGYUN 1C DEB", "OBJECT_ID": "1999-025ATZ", "EPOCH": "2025-12-04T03:33:27.415872", "MEAN_MOTION": 14.60538666, "ECCENTRICITY": 0.00223005, "INCLINATION": 98.8939, "RA_OF_ASC_NODE": 48.8815, "ARG_OF_PERICENTER": 294.4668, "MEAN_ANOMALY": 95.6063, "EPHEMERIS_TYPE": 0, "CLASSIFICATION_TYPE": "U", "NORAD_CAT_ID": 30763, "ELEMENT_SET_NO": 999, "REV_AT_EPOCH": 97019, "BSTAR": 0.010506027, "MEAN_MOTION_DOT": 0.00051523, "MEAN_MOTION_DDOT": 0}, "tle": {"line1": "1 30763U 99025ATZ 25338.14823398  .00051523  00000+0  10506-1 0  9991", "line2": "2 30763  98.8939  48.8815 0022300 294.4668  95.6063 14.60538666970197"}}, "geometry": {"type": "Point", "coordinates": [133.59966341680956, -81.0533786663345]}}, {"type": "Feature", "properties": {"norad_id": 30764, "name": "FENGYUN 1C DEB", "group": "fengyun-1c-debris", "lat": -9.758204695306205, "lon": -50.496103811594175, "alt_km": 531.1177378996344, "timestamp": "2025-12-04T17:48:40.444452+00:00", "meta": {"OBJECT_NAME": "FENGYUN 1C DEB", "OBJECT_ID": "1999-025AUA", "EPOCH": "2025-12-03T21:25:38.268192", "MEAN_MOTION": 15.28259527, "ECCENTRICITY": 0.00759443, "INCLINATION": 98.7769, "RA_OF_ASC_NODE": 306.9816, "ARG_OF_PERICENTER": 200.5077, "MEAN_ANOMALY": 159.3106, "EPHEMERIS_TYPE": 0, "CLASSIFICATION_TYPE": "U", "NORAD_CAT_ID": 30764, "ELEMENT_SET_NO": 999, "REV_AT_EPOCH": 1087, "BSTAR": 0.0017277714, "MEAN_MOTION_DOT": 0.00052053, "MEAN_MOTION_DDOT": 0}, "tle": {"line1": "1 30764U 99025AUA 25337.89280403  .00052053  00000+0  17278-2 0  9990", "line2": "2 30764  98.7769 306.9816 0075944 200.5077 159.3106 15.28259527 10878"}}, "geometry": {"type": "Point", "coordinates": [-50.496103811594175, -9.758204695306205]}}, {"type": "Feature", "properties": {"norad_id": 30765, "name": "FENGYUN 1C DEB", "group": "fengyun-1c-debris", "lat": 64.48238211993512, "lon": -136.225277828889, "alt_km": 859.7323531939228, "timestamp": "2025-12-04T17:48:40.444462+00:00", "meta": {"OBJECT_NAME": "FENGYUN 1C DEB", "OBJECT_ID": "1999-025AUB", "EPOCH": "2025-12-04T02:08:05.069184", "MEAN_MOTION": 14.14668828, "ECCENTRICITY": 0.00678368, "INCLINATION": 98.7889, "RA_OF_ASC_NODE": 24.221, "ARG_OF_PERICENTER": 233.7209, "MEAN_ANOMALY": 156.2745, "EPHEMERIS_TYPE": 0, "CLASSIFICATION_TYPE": "U", "NORAD_CAT_ID": 30765, "ELEMENT_SET_NO": 999, "REV_AT_EPOCH": 96700, "BSTAR": 0.0014002406, "MEAN_MOTION_DOT": 2.71e-05, "MEAN_MOTION_DDOT": 0}, "tle": {"line1": "1 30765U 99025AUB 25338.08894756  .00002710  00000+0  14002-2 0  9992", "line2": "2 30765  98.7889  24.2210 0067836 233.7209 156.2745 14.14668828967009"}}, "geometry": {"type": "Point", "coordinates": [-136.225277828889, 64.48238211993512]}}, {"type": "Feature", "properties": {"norad_id": 30766, "name": "FENGYUN 1C DEB", "group": "fengyun-1c-debris", "lat": 37.92355113745259, "lon": 166.25701082496633, "alt_km": 815.0033288140976, "timestamp": "2025-12-04T17:48:40.444472+00:00", "meta": {"OBJECT_NAME": "FENGYUN 1C DEB", "OBJECT_ID": "1999-025AUC", "EPOCH": "2025-11-29T06:02:29.152320", "MEAN_MOTION": 14.0947949, "ECCENTRICITY": 0.0083655, "INCLINATION": 98.6728, "RA_OF_ASC_NODE": 334.1388, "ARG_OF_PERICENTER": 112.2766, "MEAN_ANOMALY": 264.9384, "EPHEMERIS_TYPE": 0, "CLASSIFICATION_TYPE": "U", "NORAD_CAT_ID": 30766, "ELEMENT_SET_NO": 999, "REV_AT_EPOCH": 62607, "BSTAR": 0.00061885465, "MEAN_MOTION_DOT": 1.075e-05, "MEAN_MOTION_DDOT": 0}, "tle": {"line1": "1 30766U 99025AUC 25333.25172630  .00001075  00000+0  61885-3 0  9992", "line2": "2 30766  98.6728 334.1388 0083655 112.2766 264.9384 14.09479490626070"}}, "geometry": {"type": "Point", "coordinates": [166.25701082496633, 37.92355113745259]}}]}